CCSDS_OMM_VERS = 2.0
CREATION_DATE  = 
ORIGINATOR     = 

OBJECT_NAME    = COSMOS 1743
OBJECT_ID      = 1986-034A
CENTER_NAME    = EARTH
REF_FRAME      = TEME
TIME_SYSTEM    = UTC
MEAN_ELEMENT_THEORY = SGP/SGP4

EPOCH          = 2025-11-04T15:36:14.534208
MEAN_MOTION    = 15.49512013
ECCENTRICITY   = .00084871
INCLINATION    = 82.5391
RA_OF_ASC_NODE = 204.0687
ARG_OF_PERICENTER = 42.2030
MEAN_ANOMALY   = 317.9873

EPHEMERIS_TYPE = 0
CLASSIFICATION_TYPE = U
NORAD_CAT_ID   = 16719
ELEMENT_SET_NO = 999
REV_AT_EPOCH   = 16083
BSTAR          = .52628096E-3
MEAN_MOTION_DOT = .2912E-3
MEAN_MOTION_DDOT = 0

CCSDS_OMM_VERS = 2.0
CREATION_DATE  = 
ORIGINATOR     = 

OBJECT_NAME    = SL-14 R/B
OBJECT_ID      = 1986-046B
CENTER_NAME    = EARTH
REF_FRAME      = TEME
TIME_SYSTEM    = UTC
MEAN_ELEMENT_THEORY = SGP/SGP4

EPOCH          = 2025-11-04T15:43:56.188416
MEAN_MOTION    = 14.85426638
ECCENTRICITY   = .0021657
INCLINATION    = 82.4841
RA_OF_ASC_NODE = 198.2755
ARG_OF_PERICENTER = 282.5033
MEAN_ANOMALY   = 77.3760

EPHEMERIS_TYPE = 0
CLASSIFICATION_TYPE = U
NORAD_CAT_ID   = 16792
ELEMENT_SET_NO = 999
REV_AT_EPOCH   = 10784
BSTAR          = .64128E-4
MEAN_MOTION_DOT = .578E-5
MEAN_MOTION_DDOT = 0

CCSDS_OMM_VERS = 2.0
CREATION_DATE  = 
ORIGINATOR     = 

OBJECT_NAME    = SL-14 R/B
OBJECT_ID      = 1986-055B
CENTER_NAME    = EARTH
REF_FRAME      = TEME
TIME_SYSTEM    = UTC
MEAN_ELEMENT_THEORY = SGP/SGP4

EPOCH          = 2025-11-04T18:48:04.071744
MEAN_MOTION    = 14.85465011
ECCENTRICITY   = .0019858
INCLINATION    = 82.5207
RA_OF_ASC_NODE = 244.0329
ARG_OF_PERICENTER = 29.7426
MEAN_ANOMALY   = 357.9827

EPHEMERIS_TYPE = 0
CLASSIFICATION_TYPE = U
NORAD_CAT_ID   = 16882
ELEMENT_SET_NO = 999
REV_AT_EPOCH   = 10082
BSTAR          = .78004E-4
MEAN_MOTION_DOT = .699E-5
MEAN_MOTION_DDOT = 0

CCSDS_OMM_VERS = 2.0
CREATION_DATE  = 
ORIGINATOR     = 

OBJECT_NAME    = AJISAI (EGS)
OBJECT_ID      = 1986-061A
CENTER_NAME    = EARTH
REF_FRAME      = TEME
TIME_SYSTEM    = UTC
MEAN_ELEMENT_THEORY = SGP/SGP4

EPOCH          = 2025-11-04T20:34:59.924928
MEAN_MOTION    = 12.44514143
ECCENTRICITY   = .0011151
INCLINATION    = 50.0067
RA_OF_ASC_NODE = 117.2017
ARG_OF_PERICENTER = 330.3531
MEAN_ANOMALY   = 186.4746

EPHEMERIS_TYPE = 0
CLASSIFICATION_TYPE = U
NORAD_CAT_ID   = 16908
ELEMENT_SET_NO = 999
REV_AT_EPOCH   = 45245
BSTAR          = .44761E-4
MEAN_MOTION_DOT = -.91E-6
MEAN_MOTION_DDOT = 0

CCSDS_OMM_VERS = 2.0
CREATION_DATE  = 
ORIGINATOR     = 

OBJECT_NAME    = COSMOS 1812
OBJECT_ID      = 1987-003A
CENTER_NAME    = EARTH
REF_FRAME      = TEME
TIME_SYSTEM    = UTC
MEAN_ELEMENT_THEORY = SGP/SGP4

EPOCH          = 2025-11-04T12:34:28.765056
MEAN_MOTION    = 15.67937541
ECCENTRICITY   = .0003931
INCLINATION    = 82.4894
RA_OF_ASC_NODE = 333.1408
ARG_OF_PERICENTER = 161.7339
MEAN_ANOMALY   = 198.4064

EPHEMERIS_TYPE = 0
CLASSIFICATION_TYPE = U
NORAD_CAT_ID   = 17295
ELEMENT_SET_NO = 999
REV_AT_EPOCH   = 12465
BSTAR          = .5309E-3
MEAN_MOTION_DOT = .5889E-3
MEAN_MOTION_DDOT = 0

CCSDS_OMM_VERS = 2.0
CREATION_DATE  = 
ORIGINATOR     = 

OBJECT_NAME    = SL-14 R/B
OBJECT_ID      = 1987-024B
CENTER_NAME    = EARTH
REF_FRAME      = TEME
TIME_SYSTEM    = UTC
MEAN_ELEMENT_THEORY = SGP/SGP4

EPOCH          = 2025-11-04T17:37:22.611072
MEAN_MOTION    = 14.85965244
ECCENTRICITY   = .001729
INCLINATION    = 82.5305
RA_OF_ASC_NODE = 210.1498
ARG_OF_PERICENTER = 318.7349
MEAN_ANOMALY   = 41.2559

EPHEMERIS_TYPE = 0
CLASSIFICATION_TYPE = U
NORAD_CAT_ID   = 17567
ELEMENT_SET_NO = 999
REV_AT_EPOCH   = 6957
BSTAR          = .67644E-4
MEAN_MOTION_DOT = .616E-5
MEAN_MOTION_DDOT = 0

CCSDS_OMM_VERS = 2.0
CREATION_DATE  = 
ORIGINATOR     = 

OBJECT_NAME    = COSMOS 1833
OBJECT_ID      = 1987-027A
CENTER_NAME    = EARTH
REF_FRAME      = TEME
TIME_SYSTEM    = UTC
MEAN_ELEMENT_THEORY = SGP/SGP4

EPOCH          = 2025-11-04T16:52:09.892128
MEAN_MOTION    = 14.13022967
ECCENTRICITY   = .0020808
INCLINATION    = 70.9157
RA_OF_ASC_NODE = 228.7345
ARG_OF_PERICENTER = 25.5697
MEAN_ANOMALY   = 334.6448

EPHEMERIS_TYPE = 0
CLASSIFICATION_TYPE = U
NORAD_CAT_ID   = 17589
ELEMENT_SET_NO = 999
REV_AT_EPOCH   = 99265
BSTAR          = -.13018E-3
MEAN_MOTION_DOT = -.291E-5
MEAN_MOTION_DDOT = 0

CCSDS_OMM_VERS = 2.0
CREATION_DATE  = 
ORIGINATOR     = 

OBJECT_NAME    = SL-16 R/B
OBJECT_ID      = 1987-027B
CENTER_NAME    = EARTH
REF_FRAME      = TEME
TIME_SYSTEM    = UTC
MEAN_ELEMENT_THEORY = SGP/SGP4

EPOCH          = 2025-11-04T14:46:45.652224
MEAN_MOTION    = 14.17143778
ECCENTRICITY   = .0006847
INCLINATION    = 71.0015
RA_OF_ASC_NODE = 180.0513
ARG_OF_PERICENTER = 299.6889
MEAN_ANOMALY   = 60.3553

EPHEMERIS_TYPE = 0
CLASSIFICATION_TYPE = U
NORAD_CAT_ID   = 17590
ELEMENT_SET_NO = 999
REV_AT_EPOCH   = 99766
BSTAR          = .16063E-3
MEAN_MOTION_DOT = .276E-5
MEAN_MOTION_DDOT = 0

CCSDS_OMM_VERS = 2.0
CREATION_DATE  = 
ORIGINATOR     = 

OBJECT_NAME    = SL-14 R/B
OBJECT_ID      = 1987-038B
CENTER_NAME    = EARTH
REF_FRAME      = TEME
TIME_SYSTEM    = UTC
MEAN_ELEMENT_THEORY = SGP/SGP4

EPOCH          = 2025-11-04T17:34:41.517408
MEAN_MOTION    = 14.85200370
ECCENTRICITY   = .0018487
INCLINATION    = 82.5028
RA_OF_ASC_NODE = 54.4898
ARG_OF_PERICENTER = 214.0034
MEAN_ANOMALY   = 145.9998

EPHEMERIS_TYPE = 0
CLASSIFICATION_TYPE = U
NORAD_CAT_ID   = 17912
ELEMENT_SET_NO = 999
REV_AT_EPOCH   = 6068
BSTAR          = .7618E-4
MEAN_MOTION_DOT = .678E-5
MEAN_MOTION_DDOT = 0

CCSDS_OMM_VERS = 2.0
CREATION_DATE  = 
ORIGINATOR     = 

OBJECT_NAME    = COSMOS 1844
OBJECT_ID      = 1987-041A
CENTER_NAME    = EARTH
REF_FRAME      = TEME
TIME_SYSTEM    = UTC
MEAN_ELEMENT_THEORY = SGP/SGP4

EPOCH          = 2025-11-04T17:29:35.661408
MEAN_MOTION    = 14.14512551
ECCENTRICITY   = .0032197
INCLINATION    = 70.8975
RA_OF_ASC_NODE = 297.7421
ARG_OF_PERICENTER = 213.4733
MEAN_ANOMALY   = 146.4355

EPHEMERIS_TYPE = 0
CLASSIFICATION_TYPE = U
NORAD_CAT_ID   = 17973
ELEMENT_SET_NO = 999
REV_AT_EPOCH   = 98591
BSTAR          = .24095E-3
MEAN_MOTION_DOT = .416E-5
MEAN_MOTION_DDOT = 0

CCSDS_OMM_VERS = 2.0
CREATION_DATE  = 
ORIGINATOR     = 

OBJECT_NAME    = SL-14 R/B
OBJECT_ID      = 1987-055B
CENTER_NAME    = EARTH
REF_FRAME      = TEME
TIME_SYSTEM    = UTC
MEAN_ELEMENT_THEORY = SGP/SGP4

EPOCH          = 2025-11-04T17:32:39.549120
MEAN_MOTION    = 14.85457110
ECCENTRICITY   = .002209
INCLINATION    = 82.4966
RA_OF_ASC_NODE = 106.8079
ARG_OF_PERICENTER = 68.2715
MEAN_ANOMALY   = 292.0849

EPHEMERIS_TYPE = 0
CLASSIFICATION_TYPE = U
NORAD_CAT_ID   = 18153
ELEMENT_SET_NO = 999
REV_AT_EPOCH   = 5138
BSTAR          = .6697E-4
MEAN_MOTION_DOT = .604E-5
MEAN_MOTION_DDOT = 0

CCSDS_OMM_VERS = 2.0
CREATION_DATE  = 
ORIGINATOR     = 

OBJECT_NAME    = COSMOS 1867
OBJECT_ID      = 1987-060A
CENTER_NAME    = EARTH
REF_FRAME      = TEME
TIME_SYSTEM    = UTC
MEAN_ELEMENT_THEORY = SGP/SGP4

EPOCH          = 2025-11-04T16:01:09.731136
MEAN_MOTION    = 14.31476245
ECCENTRICITY   = .0013729
INCLINATION    = 65.0100
RA_OF_ASC_NODE = 296.8193
ARG_OF_PERICENTER = 267.3436
MEAN_ANOMALY   = 92.6077

EPHEMERIS_TYPE = 0
CLASSIFICATION_TYPE = U
NORAD_CAT_ID   = 18187
ELEMENT_SET_NO = 999
REV_AT_EPOCH   = 204
BSTAR          = .36089E-4
MEAN_MOTION_DOT = -.4E-7
MEAN_MOTION_DDOT = 0

